start=new Date('2023-05-09T00:00:00.000Z').valueOf();
sats=[{"OBJECT_TYPE":"PAYLOAD","EPOCH":"2023-05-08T10:12:49.540032","INCLINATION":"53.2158","COUNTRY_CODE":"US","CLASSIFICATION_TYPE":"U","SEMIMAJOR_AXIS":"6917.892","CENTER_NAME":"EARTH","EPHEMERIS_TYPE":"0","MEAN_MOTION_DOT":"0.00000462","FILE":"3904305","LAUNCH_DATE":"2022-01-06","ELEMENT_SET_NO":"999","TIME_SYSTEM":"UTC","MEAN_ELEMENT_THEORY":"SGP4","MEAN_ANOMALY":"279.8978","TLE_LINE2":"2 50805  53.2158 131.0885 0000877  80.2113 279.8978 15.08836233 74108","MEAN_MOTION":"15.08836233","NORAD_CAT_ID":"50805","ARG_OF_PERICENTER":"80.2113","SITE":"AFETR","OBJECT_ID":"2022-001C","REV_AT_EPOCH":"7410","TLE_LINE1":"1 50805U 22001C   23128.42557338  .00000462  00000-0  47127-4 0  9993","PERIAPSIS":"539.150","GP_ID":"231473341","REF_FRAME":"TEME","PERIOD":"95.438","RCS_SIZE":"LARGE","APOAPSIS":"540.364","DECAY_DATE":null,"MEAN_MOTION_DDOT":"0.0000000000000","RA_OF_ASC_NODE":"131.0885","OBJECT_NAME":"STARLINK-3333","ECCENTRICITY":"0.00008770","BSTAR":"0.00004712700000"},{"RA_OF_ASC_NODE":"131.7003","OBJECT_NAME":"STARLINK-3335","ECCENTRICITY":"0.00011480","BSTAR":"0.00010745000000","MEAN_MOTION_DDOT":"0.0000000000000","TLE_LINE1":"1 50806U 22001D   23128.28940470  .00001423  00000-0  10745-3 0  9994","PERIAPSIS":"538.959","GP_ID":"231475850","RCS_SIZE":"LARGE","PERIOD":"95.438","REF_FRAME":"TEME","APOAPSIS":"540.547","DECAY_DATE":null,"NORAD_CAT_ID":"50806","MEAN_MOTION":"15.08837604","ARG_OF_PERICENTER":"88.8327","SITE":"AFETR","OBJECT_ID":"2022-001D","REV_AT_EPOCH":"7408","MEAN_ANOMALY":"271.2797","LAUNCH_DATE":"2022-01-06","MEAN_ELEMENT_THEORY":"SGP4","TIME_SYSTEM":"UTC","ELEMENT_SET_NO":"999","TLE_LINE2":"2 50806  53.2155 131.7003 0001148  88.8327 271.2797 15.08837604 74083","MEAN_MOTION_DOT":"0.00001423","FILE":"3904305","CLASSIFICATION_TYPE":"U","COUNTRY_CODE":"US","SEMIMAJOR_AXIS":"6917.888","CENTER_NAME":"EARTH","EPHEMERIS_TYPE":"0","OBJECT_TYPE":"PAYLOAD","INCLINATION":"53.2155","EPOCH":"2023-05-08T06:56:44.566080"},{"ARG_OF_PERICENTER":"83.3363","SITE":"AFETR","NORAD_CAT_ID":"50807","MEAN_MOTION":"15.08840965","REV_AT_EPOCH":"7416","OBJECT_ID":"2022-001E","PERIOD":"95.437","RCS_SIZE":"LARGE","REF_FRAME":"TEME","GP_ID":"231474846","TLE_LINE1":"1 50807U 22001E   23128.80460306  .00000722  00000-0  63436-4 0  9995","PERIAPSIS":"538.919","DECAY_DATE":null,"APOAPSIS":"540.566","MEAN_MOTION_DDOT":"0.0000000000000","RA_OF_ASC_NODE":"129.3859","OBJECT_NAME":"STARLINK-3353","BSTAR":"0.00006343600000","ECCENTRICITY":"0.00011900","OBJECT_TYPE":"PAYLOAD","INCLINATION":"53.2164","EPOCH":"2023-05-08T19:18:37.704384","SEMIMAJOR_AXIS":"6917.877","CLASSIFICATION_TYPE":"U","COUNTRY_CODE":"US","EPHEMERIS_TYPE":"0","CENTER_NAME":"EARTH","FILE":"3904305","MEAN_MOTION_DOT":"0.00000722","LAUNCH_DATE":"2022-01-06","TIME_SYSTEM":"UTC","MEAN_ANOMALY":"276.7764","MEAN_ELEMENT_THEORY":"SGP4","ELEMENT_SET_NO":"999","TLE_LINE2":"2 50807  53.2164 129.3859 0001190  83.3363 276.7764 15.08840965 74160"},{"MEAN_MOTION":"15.08867784","NORAD_CAT_ID":"50808","ARG_OF_PERICENTER":"81.2680","SITE":"AFETR","OBJECT_ID":"2022-001F","REV_AT_EPOCH":"7410","TLE_LINE1":"1 50808U 22001F   23128.41452822  .00008226  00000-0  53393-3 0  9994","PERIAPSIS":"538.967","GP_ID":"231474349","REF_FRAME":"TEME","PERIOD":"95.436","RCS_SIZE":"LARGE","APOAPSIS":"540.354","DECAY_DATE":null,"MEAN_MOTION_DDOT":"0.0000000000000","RA_OF_ASC_NODE":"131.1386","OBJECT_NAME":"STARLINK-3355","ECCENTRICITY":"0.00010030","BSTAR":"0.00053393000000","OBJECT_TYPE":"PAYLOAD","INCLINATION":"53.2144","EPOCH":"2023-05-08T09:56:55.238208","COUNTRY_CODE":"US","CLASSIFICATION_TYPE":"U","SEMIMAJOR_AXIS":"6917.795","CENTER_NAME":"EARTH","EPHEMERIS_TYPE":"0","MEAN_MOTION_DOT":"0.00008226","FILE":"3904305","MEAN_ELEMENT_THEORY":"SGP4","LAUNCH_DATE":"2022-01-06","MEAN_ANOMALY":"278.8425","TIME_SYSTEM":"UTC","ELEMENT_SET_NO":"999","TLE_LINE2":"2 50808  53.2144 131.1386 0001003  81.2680 278.8425 15.08867784 74106"},{"MEAN_MOTION":"15.08837385","NORAD_CAT_ID":"50809","ARG_OF_PERICENTER":"88.6042","SITE":"AFETR","OBJECT_ID":"2022-001G","REV_AT_EPOCH":"7408","GP_ID":"231473842","TLE_LINE1":"1 50809U 22001G   23128.28572557  .00000326  00000-0  38578-4 0  9990","PERIAPSIS":"538.967","REF_FRAME":"TEME","PERIOD":"95.438","RCS_SIZE":"LARGE","APOAPSIS":"540.540","DECAY_DATE":null,"MEAN_MOTION_DDOT":"0.0000000000000","RA_OF_ASC_NODE":"131.7172","OBJECT_NAME":"STARLINK-3232","ECCENTRICITY":"0.00011370","BSTAR":"0.00003857800000","OBJECT_TYPE":"PAYLOAD","INCLINATION":"53.2153","EPOCH":"2023-05-08T06:51:26.689248","COUNTRY_CODE":"US","CLASSIFICATION_TYPE":"U","SEMIMAJOR_AXIS":"6917.888","CENTER_NAME":"EARTH","EPHEMERIS_TYPE":"0","MEAN_MOTION_DOT":"0.00000326","FILE":"3904305","LAUNCH_DATE":"2022-01-06","MEAN_ELEMENT_THEORY":"SGP4","ELEMENT_SET_NO":"999","TIME_SYSTEM":"UTC","MEAN_ANOMALY":"271.5080","TLE_LINE2":"2 50809  53.2153 131.7172 0001137  88.6042 271.5080 15.08837385 74085"},{"TLE_LINE2":"2 50810  53.2167 129.6676 0001145  90.5774 269.5349 15.08835255 74157","TIME_SYSTEM":"UTC","LAUNCH_DATE":"2022-01-06","MEAN_ELEMENT_THEORY":"SGP4","MEAN_ANOMALY":"269.5349","ELEMENT_SET_NO":"999","FILE":"3904305","MEAN_MOTION_DOT":"0.00000300","EPHEMERIS_TYPE":"0","CENTER_NAME":"EARTH","SEMIMAJOR_AXIS":"6917.895","COUNTRY_CODE":"US","CLASSIFICATION_TYPE":"U","INCLINATION":"53.2167","EPOCH":"2023-05-08T17:48:33.854400","OBJECT_TYPE":"PAYLOAD","BSTAR":"0.00003692700000","ECCENTRICITY":"0.00011450","OBJECT_NAME":"STARLINK-3348","RA_OF_ASC_NODE":"129.6676","MEAN_MOTION_DDOT":"0.0000000000000","DECAY_DATE":null,"APOAPSIS":"540.552","REF_FRAME":"TEME","PERIOD":"95.438","RCS_SIZE":"LARGE","TLE_LINE1":"1 50810U 22001H   23128.74205850  .00000300  00000-0  36927-4 0  9990","GP_ID":"231475350","PERIAPSIS":"538.968","REV_AT_EPOCH":"7415","OBJECT_ID":"2022-001H","SITE":"AFETR","ARG_OF_PERICENTER":"90.5774","MEAN_MOTION":"15.08835255","NORAD_CAT_ID":"50810"},{"TIME_SYSTEM":"UTC","LAUNCH_DATE":"2022-01-06","MEAN_ANOMALY":"270.5182","MEAN_ELEMENT_THEORY":"SGP4","ELEMENT_SET_NO":"999","TLE_LINE2":"2 50811  53.2169 129.3995 0001225  89.5950 270.5182 15.08841702 74166","FILE":"3904305","MEAN_MOTION_DOT":"0.00000614","SEMIMAJOR_AXIS":"6917.875","CLASSIFICATION_TYPE":"U","COUNTRY_CODE":"US","EPHEMERIS_TYPE":"0","CENTER_NAME":"EARTH","OBJECT_TYPE":"PAYLOAD","EPOCH":"2023-05-08T19:13:19.940736","INCLINATION":"53.2169","OBJECT_NAME":"STARLINK-3347","RA_OF_ASC_NODE":"129.3995","BSTAR":"0.00005662900000","ECCENTRICITY":"0.00012250","MEAN_MOTION_DDOT":"0.0000000000000","RCS_SIZE":"LARGE","PERIOD":"95.437","REF_FRAME":"TEME","TLE_LINE1":"1 50811U 22001J   23128.80092524  .00000614  00000-0  56629-4 0  9999","GP_ID":"231474346","PERIAPSIS":"538.893","DECAY_DATE":null,"APOAPSIS":"540.588","ARG_OF_PERICENTER":"89.5950","SITE":"AFETR","NORAD_CAT_ID":"50811","MEAN_MOTION":"15.08841702","REV_AT_EPOCH":"7416","OBJECT_ID":"2022-001J"},{"COUNTRY_CODE":"US","CLASSIFICATION_TYPE":"U","SEMIMAJOR_AXIS":"6917.904","CENTER_NAME":"EARTH","EPHEMERIS_TYPE":"0","OBJECT_TYPE":"PAYLOAD","INCLINATION":"53.2167","EPOCH":"2023-05-08T17:00:52.836768","TIME_SYSTEM":"UTC","LAUNCH_DATE":"2022-01-06","MEAN_ELEMENT_THEORY":"SGP4","MEAN_ANOMALY":"270.5213","ELEMENT_SET_NO":"999","TLE_LINE2":"2 50812  53.2167 129.9243 0001120  89.5907 270.5213 15.08832266 74141","MEAN_MOTION_DOT":"0.00000055","FILE":"3904305","TLE_LINE1":"1 50812U 22001K   23128.70894487  .00000055  00000-0  21556-4 0  9997","PERIAPSIS":"538.994","GP_ID":"231474850","REF_FRAME":"TEME","RCS_SIZE":"LARGE","PERIOD":"95.438","APOAPSIS":"540.544","DECAY_DATE":null,"MEAN_MOTION":"15.08832266","NORAD_CAT_ID":"50812","SITE":"AFETR","ARG_OF_PERICENTER":"89.5907","OBJECT_ID":"2022-001K","REV_AT_EPOCH":"7414","OBJECT_NAME":"STARLINK-3338","RA_OF_ASC_NODE":"129.9243","ECCENTRICITY":"0.00011200","BSTAR":"0.00002155600000","MEAN_MOTION_DDOT":"0.0000000000000"},{"OBJECT_TYPE":"PAYLOAD","EPOCH":"2023-05-08T17:27:20.652768","INCLINATION":"53.2158","SEMIMAJOR_AXIS":"6917.886","COUNTRY_CODE":"US","CLASSIFICATION_TYPE":"U","EPHEMERIS_TYPE":"0","CENTER_NAME":"EARTH","FILE":"3904305","MEAN_MOTION_DOT":"0.00000548","TIME_SYSTEM":"UTC","LAUNCH_DATE":"2022-01-06","MEAN_ELEMENT_THEORY":"SGP4","ELEMENT_SET_NO":"999","MEAN_ANOMALY":"271.9815","TLE_LINE2":"2 50813  53.2158 129.6819 0001213  88.1316 271.9815 15.08838315 74155","ARG_OF_PERICENTER":"88.1316","SITE":"AFETR","MEAN_MOTION":"15.08838315","NORAD_CAT_ID":"50813","REV_AT_EPOCH":"7415","OBJECT_ID":"2022-001L","REF_FRAME":"TEME","PERIOD":"95.438","RCS_SIZE":"LARGE","TLE_LINE1":"1 50813U 22001L   23128.72732237  .00000548  00000-0  52499-4 0  9991","GP_ID":"231473342","PERIAPSIS":"538.911","DECAY_DATE":null,"APOAPSIS":"540.590","MEAN_MOTION_DDOT":"0.0000000000000","RA_OF_ASC_NODE":"129.6819","OBJECT_NAME":"STARLINK-3349","BSTAR":"0.00005249900000","ECCENTRICITY":"0.00012130"},{"BSTAR":"0.00010182000000","ECCENTRICITY":"0.00010840","OBJECT_NAME":"STARLINK-3324","RA_OF_ASC_NODE":"140.9903","MEAN_MOTION_DDOT":"0.0000000000000","DECAY_DATE":null,"APOAPSIS":"540.479","REF_FRAME":"TEME","RCS_SIZE":"LARGE","PERIOD":"95.437","PERIAPSIS":"538.980","TLE_LINE1":"1 50814U 22001M   23128.44671864  .00001333  00000-0  10182-3 0  9994","GP_ID":"231447382","REV_AT_EPOCH":"7524","OBJECT_ID":"2022-001M","ARG_OF_PERICENTER":"89.0347","SITE":"AFETR","MEAN_MOTION":"15.08845193","NORAD_CAT_ID":"50814","TLE_LINE2":"2 50814  53.2164 140.9903 0001084  89.0347 271.0769 15.08845193 75245","LAUNCH_DATE":"2022-01-06","TIME_SYSTEM":"UTC","MEAN_ELEMENT_THEORY":"SGP4","ELEMENT_SET_NO":"999","MEAN_ANOMALY":"271.0769","FILE":"3903999","MEAN_MOTION_DOT":"0.00001333","EPHEMERIS_TYPE":"0","CENTER_NAME":"EARTH","SEMIMAJOR_AXIS":"6917.865","COUNTRY_CODE":"US","CLASSIFICATION_TYPE":"U","EPOCH":"2023-05-08T10:43:16.490496","INCLINATION":"53.2164","OBJECT_TYPE":"PAYLOAD"}];
